{
  "norad_id": 62176,
  "name": "STARLINK-32516",
  "history": [
    {
      "epoch": "2026-03-28T18:59:34.554624",
      "apogee_km": 574.2589095730273,
      "perigee_km": 569.8017672589021,
      "latitude_deg": 69.34375941751902,
      "longitude_deg": 113.57172736013308,
      "semi_major_axis_km": 6950.167338415965,
      "eccentricity": 0.00032065,
      "inclination_deg": 70.0025,
      "raan_deg": 116.3986,
      "arg_perigee_deg": 273.2181,
      "mean_anomaly_deg": 86.8611,
      "mean_motion_rev_day": 14.98338263
    },
    {
      "epoch": "2026-03-29T04:36:22.611168",
      "apogee_km": 574.6029914084183,
      "perigee_km": 569.4209603320087,
      "latitude_deg": 67.5931214078812,
      "longitude_deg": 152.02512352005579,
      "semi_major_axis_km": 6950.148975870213,
      "eccentricity": 0.0003728,
      "inclination_deg": 70.0003,
      "raan_deg": 115.3891,
      "arg_perigee_deg": 270.1391,
      "mean_anomaly_deg": 89.9341,
      "mean_motion_rev_day": 14.98344201
    }
  ]
}